     2.100          NAVIGATION                              RINEX VERSION / TYPE
fic2rin                                 04/24/2013 00:22:50 PGM / RUN BY / DATE
                                                            END OF HEADER
13 13  4 23  1 59 44.0  .126025173813D-03 -.352429196937D-11  .000000000000D+00
     .200000000000D+01 -.289687500000D+02  .435268130665D-08  .229169530398D+01
    -.144168734550D-05  .517533184029D-02  .306218862534D-05  .515376032257D+04
     .179984000000D+06  .223517417908D-07  .135550585600D+01  .838190317154D-07
     .981675681864D+00  .330718750000D+03  .208900630272D+01 -.818284084817D-08
    -.185364864048D-09  .100000000000D+01  .173700000000D+04  .000000000000D+00
     .240000000000D+01  .000000000000D+00 -.111758708954D-07  .200000000000D+01
     .172806000000D+06  .400000000000D+01
27 13  4 23  1 59 44.0 -.178402755409D-03  .125055521494D-11  .000000000000D+00
     .170000000000D+02  .507500000000D+02  .550058626435D-08 -.271036435173D+01
     .242702662945D-05  .612320250366D-02  .953488051891D-05  .515366207123D+04
     .179984000000D+06  .502914190292D-07 -.292320375887D+01 -.689178705215D-07
     .977645784357D+00  .205187500000D+03  .838241110941D+00 -.781961143249D-08
     .561094800422D-09  .100000000000D+01  .173700000000D+04  .000000000000D+00
     .240000000000D+01  .630000000000D+02 -.190921127796D-07  .170000000000D+02
     .172806000000D+06  .400000000000D+01
 1 13  4 23  2  0  0.0  .188145786524D-04  .363797880709D-11  .000000000000D+00
     .540000000000D+02 -.354062500000D+02  .442089843388D-08  .465724806942D+00
    -.185146927834D-05  .177797896322D-02  .116694718599D-04  .515370751572D+04
     .180000000000D+06  .298023223877D-07 -.837423572339D+00 -.558793544769D-08
     .960223819805D+00  .148875000000D+03  .282175339930D+00 -.801390523989D-08
    -.553594488004D-09  .100000000000D+01  .173700000000D+04  .000000000000D+00
     .240000000000D+01  .000000000000D+00  .838190317154D-08  .540000000000D+02
     .172806000000D+06  .400000000000D+01
 2 13  4 23  2  0  0.0  .428639817983D-03  .193267624127D-11  .000000000000D+00
     .670000000000D+02 -.440625000000D+02  .494663461862D-08  .123368019870D+01
    -.207312405109D-05  .122905670432D-01  .113323330879D-04  .515364939690D+04
     .180000000000D+06 -.154599547386D-06 -.858306313915D+00  .109896063805D-06
     .938721092084D+00  .153437500000D+03 -.261577982072D+01 -.830641742420D-08
    -.668956436149D-09  .100000000000D+01  .173700000000D+04  .000000000000D+00
     .240000000000D+01  .000000000000D+00 -.176951289177D-07  .670000000000D+02
     .172806000000D+06  .400000000000D+01
 3 13  4 23  2  0  0.0  .197596848011D-03  .488853402203D-11  .000000000000D+00
     .390000000000D+02 -.559375000000D+01  .584702926652D-08  .141106656155D+01
    -.543892383575D-06  .161282693734D-01  .422075390816D-05  .515368134499D+04
     .180000000000D+06 -.376254320145D-06 -.202795880003D+01 -.251457095146D-06
     .933828438640D+00  .288406250000D+03  .128102268691D+01 -.894108671786D-08
     .232152527227D-10  .100000000000D+01  .173700000000D+04  .000000000000D+00
     .240000000000D+01  .000000000000D+00 -.465661287308D-08  .390000000000D+02
     .172806000000D+06  .400000000000D+01
 4 13  4 23  2  0  0.0  .198106747121D-03  .108002495836D-10  .000000000000D+00
     .780000000000D+02 -.499687500000D+02  .480627162908D-08 -.182604041282D+01
    -.256858766079D-05  .103106532479D-01  .113844871521D-04  .515378618813D+04
     .180000000000D+06  .178813934326D-06 -.841815420648D+00 -.104308128357D-06
     .937771896706D+00  .145531250000D+03  .970491974509D+00 -.805247827518D-08
    -.456447584303D-09  .100000000000D+01  .173700000000D+04  .000000000000D+00
     .240000000000D+01  .000000000000D+00 -.605359673500D-08  .780000000000D+02
     .172806000000D+06  .400000000000D+01
 5 13  4 23  2  0  0.0 -.392494723201D-03 -.125055521494D-11  .000000000000D+00
     .400000000000D+02  .915937500000D+02  .469055252320D-08 -.288539533746D+01
     .475719571114D-05  .305046665017D-02  .923871994019D-05  .515360257912D+04
     .180000000000D+06 -.149011611938D-07  .206327528678D+00 -.298023223877D-07
     .949382066625D+00  .196312500000D+03  .289062726063D+00 -.816855453880D-08
     .341799951626D-09  .100000000000D+01  .173700000000D+04  .000000000000D+00
     .240000000000D+01  .000000000000D+00 -.102445483208D-07  .400000000000D+02
     .172806000000D+06  .400000000000D+01
 6 13  4 23  2  0  0.0  .262432731688D-03 -.159161572810D-10  .000000000000D+00
     .114000000000D+03 -.108437500000D+02  .553201614496D-08 -.301680125173D+01
    -.461935997009D-06  .801386684179D-02  .395439565182D-05  .515367507553D+04
     .180000000000D+06 -.152736902237D-06 -.194872373070D+01  .447034835815D-07
     .940439867221D+00  .292312500000D+03 -.343193429190D+00 -.855178478759D-08
    -.289297764699D-10  .100000000000D+01  .173700000000D+04  .000000000000D+00
     .340000000000D+01  .000000000000D+00 -.512227416039D-08  .114000000000D+03
     .172806000000D+06  .400000000000D+01
 7 13  4 23  2  0  0.0  .205752905458D-03  .432009983342D-11  .000000000000D+00
     .280000000000D+02 -.781875000000D+02  .405159733672D-08 -.144781472284D+00
    -.398419797421D-05  .624048965983D-02  .113602727652D-04  .515370027924D+04
     .180000000000D+06  .875443220139D-07  .232331690146D+01  .335276126862D-07
     .975502229012D+00  .167500000000D+03 -.293695967559D+01 -.793425906517D-08
    -.199294015681D-09  .100000000000D+01  .173700000000D+04  .000000000000D+00
     .240000000000D+01  .000000000000D+00 -.107102096081D-07  .280000000000D+02
     .172806000000D+06  .400000000000D+01
 8 13  4 23  2  0  0.0  .573741272092D-05  .227373675443D-12  .000000000000D+00
     .910000000000D+02 -.656250000000D+02  .350836042301D-08 -.689039787170D+00
    -.338256359100D-05  .128525446635D-01  .117346644402D-04  .515373389435D+04
     .180000000000D+06  .277534127235D-06  .241380705977D+01 -.372529029846D-08
     .998245565392D+00  .168781250000D+03 -.287932060964D+01 -.763531804164D-08
    -.107147320259D-09  .100000000000D+01  .173700000000D+04  .000000000000D+00
     .340000000000D+01  .000000000000D+00 -.419095158577D-08  .910000000000D+02
     .172806000000D+06  .400000000000D+01
 9 13  4 23  2  0  0.0  .235949642956D-03  .261479726760D-11  .000000000000D+00
     .990000000000D+02 -.748437500000D+02  .392337771014D-08  .321608459140D+00
    -.411085784435D-05  .173332527047D-01  .108666718006D-04  .515279734230D+04
     .180000000000D+06 -.214204192162D-06  .229986648850D+01 -.154599547386D-06
     .984125897022D+00  .186125000000D+03  .164952666305D+01 -.807926510525D-08
    -.272868508926D-09  .100000000000D+01  .173700000000D+04  .000000000000D+00
     .340000000000D+01  .000000000000D+00 -.558793544769D-08  .990000000000D+02
     .172806000000D+06  .400000000000D+01
10 13  4 23  2  0  0.0 -.774874351919D-04 -.125055521494D-11  .000000000000D+00
     .460000000000D+02  .102593750000D+03  .468340936851D-08 -.263035023756D+01
     .525638461113D-05  .123647829751D-01  .915862619877D-05  .515363313675D+04
     .180000000000D+06  .875443220139D-07  .225948055758D+00 -.162050127983D-06
     .944208225697D+00  .193000000000D+03  .799427761364D+00 -.807533637017D-08
     .447518640948D-09  .100000000000D+01  .173700000000D+04  .000000000000D+00
     .240000000000D+01  .000000000000D+00 -.279396772385D-08  .460000000000D+02
     .172806000000D+06  .400000000000D+01
11 13  4 23  2  0  0.0 -.374982133508D-03 -.363797880709D-11  .000000000000D+00
     .990000000000D+02 -.632500000000D+02  .643812531662D-08  .578693570510D-01
    -.313110649586D-05  .139127699658D-01  .877119600773D-05  .515368749809D+04
     .180000000000D+06 -.102445483208D-06 -.113182308939D+01  .143423676491D-06
     .888612427669D+00  .170250000000D+03  .115756970296D+01 -.927395772614D-08
    -.616811406957D-09  .100000000000D+01  .173700000000D+04  .000000000000D+00
     .240000000000D+01  .000000000000D+00 -.116415321827D-07  .990000000000D+02
     .172806000000D+06  .400000000000D+01
12 13  4 23  2  0  0.0  .129868742079D-03  .204636307899D-11  .000000000000D+00
     .610000000000D+02  .454687500000D+02  .416160191885D-08 -.439536112695D+00
     .246614217758D-05  .449255190324D-02  .926665961742D-05  .515358585739D+04
     .180000000000D+06  .372529029846D-07 -.290181160728D+01 -.130385160446D-07
     .983973475588D+00  .215687500000D+03  .217191390939D+00 -.787068498848D-08
     .548594279725D-09  .100000000000D+01  .173700000000D+04  .000000000000D+00
     .240000000000D+01  .000000000000D+00 -.121071934700D-07  .610000000000D+02
     .172806000000D+06  .400000000000D+01
14 13  4 23  2  0  0.0  .221075955778D-03  .000000000000D+00  .000000000000D+00
     .720000000000D+02 -.240625000000D+02  .438625413366D-08  .244107769312D+01
    -.121816992760D-05  .678665016312D-02  .317767262459D-05  .515373182106D+04
     .180000000000D+06  .316649675369D-07  .132647878761D+01 -.119209289551D-06
     .974380897915D+00  .324375000000D+03 -.203200239484D+01 -.817891211309D-08
    -.646455498895D-10  .100000000000D+01  .173700000000D+04  .000000000000D+00
     .240000000000D+01  .000000000000D+00 -.884756445885D-08  .720000000000D+02
     .172806000000D+06  .400000000000D+01
15 13  4 23  2  0  0.0 -.116313807666D-03 -.147792889038D-11  .000000000000D+00
     .520000000000D+02 -.318750000000D+01  .534272254584D-08  .191795488426D+01
    -.188127160072D-06  .538409256842D-02  .213086605072D-05  .515374067688D+04
     .180000000000D+06 -.372529029846D-08  .122766628585D+01  .540167093277D-07
     .941083132781D+00  .328687500000D+03  .168426800064D+00 -.874822154140D-08
    -.582167106740D-10  .100000000000D+01  .173700000000D+04  .000000000000D+00
     .240000000000D+01  .000000000000D+00 -.102445483208D-07  .520000000000D+02
     .172806000000D+06  .400000000000D+01
